STARLINK-2194           
1 47771U 21017BB  26068.68077411  .00014660  00000+0  51886-3 0  9990
2 47771  53.1565 203.8644 0001150  81.8928 278.2202 15.29387975277873
STARLINK-36554          
1 67502U 26012K   26067.71268370  .00032833  00000+0  11969-2 0  9992
2 67502  42.9934 319.8184 0000695 339.2059  20.8765 15.27591469  7619
